police_station,missing_reported,latitude,longitude,place_name,maps_url,status
UTTAM NAGAR,7609,28.6252935,77.0622236,UTTAM NAGAR,https://www.google.com/maps/search/?api=1&query=UTTAM+NAGAR+Police+Station+Delhi,VERIFIED
DABRI,7456,28.6128883,77.0857544,DABRI,https://www.google.com/maps/search/?api=1&query=DABRI+Police+Station+Delhi,VERIFIED
RANHOLA,7318,28.6537789,77.0357848,RANHOLA,https://www.google.com/maps/search/?api=1&query=RANHOLA+Police+Station+Delhi,VERIFIED
BINDA PUR,6990,28.6121707,77.0768048,BINDA PUR,https://www.google.com/maps/search/?api=1&query=BINDA+PUR+Police+Station+Delhi,VERIFIED
NIHAL VIHAR,6637,28.6649705,77.0716017,NIHAL VIHAR,https://www.google.com/maps/search/?api=1&query=NIHAL+VIHAR+Police+Station+Delhi,VERIFIED
AMAN VIHAR,6566,28.7183061,77.0643621,AMAN VIHAR,https://www.google.com/maps/search/?api=1&query=AMAN+VIHAR+Police+Station+Delhi,VERIFIED
KHAJURI KHAS,6418,28.7131978,77.2548737,KHAJURI KHAS,https://www.google.com/maps/search/?api=1&query=KHAJURI+KHAS+Police+Station+Delhi,VERIFIED
NARELA,6028,28.8532126,77.0880622,NARELA,https://www.google.com/maps/search/?api=1&query=NARELA+Police+Station+Delhi,VERIFIED
JAIT PUR,5660,28.5038283,77.3195225,JAIT PUR,https://www.google.com/maps/search/?api=1&query=JAIT+PUR+Police+Station+Delhi,VERIFIED
SULTAN PURI,5484,28.702765,77.0789265,SULTAN PURI,https://www.google.com/maps/search/?api=1&query=SULTAN+PURI+Police+Station+Delhi,VERIFIED
BURARI,5443,28.7365209,77.1971686,BURARI,https://www.google.com/maps/search/?api=1&query=BURARI+Police+Station+Delhi,VERIFIED
SANGAM VIHAR,5325,28.5097197,77.2431929,SANGAM VIHAR,https://www.google.com/maps/search/?api=1&query=SANGAM+VIHAR+Police+Station+Delhi,VERIFIED
SHAHBAD DAIRY,5073,28.747688,77.078833,SHAHBAD DAIRY,https://www.google.com/maps/search/?api=1&query=SHAHBAD+DAIRY+Police+Station+Delhi,VERIFIED
MANGOL PURI,5027,28.6964436,77.0914505,MANGOL PURI,https://www.google.com/maps/search/?api=1&query=MANGOL+PURI+Police+Station+Delhi,VERIFIED
KAPASHERA,5001,28.5295546,77.0873972,KAPASHERA,https://www.google.com/maps/search/?api=1&query=KAPASHERA+Police+Station+Delhi,VERIFIED
GOVIND PURI,4906,28.530997,77.2655896,GOVIND PURI,https://www.google.com/maps/search/?api=1&query=GOVIND+PURI+Police+Station+Delhi,VERIFIED
VIJAY VIHAR,4774,28.7102306,77.1025065,VIJAY VIHAR,https://www.google.com/maps/search/?api=1&query=VIJAY+VIHAR+Police+Station+Delhi,VERIFIED
BHALSWA DAIRY,4606,28.7427326,77.1656592,BHALSWA DAIRY,https://www.google.com/maps/search/?api=1&query=BHALSWA+DAIRY+Police+Station+Delhi,VERIFIED
KARAWAL NAGAR,4596,28.7321924,77.2756599,KARAWAL NAGAR,https://www.google.com/maps/search/?api=1&query=KARAWAL+NAGAR+Police+Station+Delhi,VERIFIED
GOKUL PURI,4469,28.7024621,77.2863953,GOKUL PURI,https://www.google.com/maps/search/?api=1&query=GOKUL+PURI+Police+Station+Delhi,VERIFIED
JAHANGIR PURI,4411,28.733703,77.1752476,JAHANGIR PURI,https://www.google.com/maps/search/?api=1&query=JAHANGIR+PURI+Police+Station+Delhi,VERIFIED
NANGLOI,4375,28.6818351,77.0670557,NANGLOI,https://www.google.com/maps/search/?api=1&query=NANGLOI+Police+Station+Delhi,VERIFIED
SAMAI PUR BADLI,4348,28.7321543,77.1460136,SAMAI PUR BADLI,https://www.google.com/maps/search/?api=1&query=SAMAI+PUR+BADLI+Police+Station+Delhi,VERIFIED
SAGAR PUR,4325,28.609732,77.0998416,SAGAR PUR,https://www.google.com/maps/search/?api=1&query=SAGAR+PUR+Police+Station+Delhi,VERIFIED
PALAM VILLAGE,4272,28.5880587,77.0829873,PALAM VILLAGE,https://www.google.com/maps/search/?api=1&query=PALAM+VILLAGE+Police+Station+Delhi,VERIFIED
BAWANA,4246,28.796521,77.0417534,BAWANA,https://www.google.com/maps/search/?api=1&query=BAWANA+Police+Station+Delhi,VERIFIED
MEHRAULI,4220,28.5215219,77.1803417,MEHRAULI,https://www.google.com/maps/search/?api=1&query=MEHRAULI+Police+Station+Delhi,VERIFIED
NEW ASHOK NAGAR,4124,28.6039583,77.3236546,NEW ASHOK NAGAR,https://www.google.com/maps/search/?api=1&query=NEW+ASHOK+NAGAR+Police+Station+Delhi,VERIFIED
AMBEDKAR NAGAR,4093,28.5237375,77.2409219,AMBEDKAR NAGAR,https://www.google.com/maps/search/?api=1&query=AMBEDKAR+NAGAR+Police+Station+Delhi,VERIFIED
NAJAFGARH,4088,28.609976,76.9828648,NAJAFGARH,https://www.google.com/maps/search/?api=1&query=NAJAFGARH+Police+Station+Delhi,VERIFIED
TILAK NAGAR,3828,28.6385935,77.1019131,TILAK NAGAR,https://www.google.com/maps/search/?api=1&query=TILAK+NAGAR+Police+Station+Delhi,VERIFIED
KHAYALA,3674,28.6541906,77.1050096,KHAYALA,https://www.google.com/maps/search/?api=1&query=KHAYALA+Police+Station+Delhi,VERIFIED
HARSH VIHAR,3575,28.7058886,77.3185566,HARSH VIHAR,https://www.google.com/maps/search/?api=1&query=HARSH+VIHAR+Police+Station+Delhi,VERIFIED
KALYAN PURI,3562,28.6133349,77.3172558,KALYAN PURI,https://www.google.com/maps/search/?api=1&query=KALYAN+PURI+Police+Station+Delhi,VERIFIED
ALIPUR,3539,28.798931,77.1385895,ALIPUR,https://www.google.com/maps/search/?api=1&query=ALIPUR+Police+Station+Delhi,VERIFIED
BEGUM PUR,3481,28.7223706,77.0722433,BEGUM PUR,https://www.google.com/maps/search/?api=1&query=BEGUM+PUR+Police+Station+Delhi,VERIFIED
BADAR PUR,3369,28.4937601,77.3038474,BADAR PUR,https://www.google.com/maps/search/?api=1&query=BADAR+PUR+Police+Station+Delhi,VERIFIED
NARELA INDUSTRIAL AREA,3353,28.8732436,77.0233487,NARELA INDUSTRIAL AREA,https://www.google.com/maps/search/?api=1&query=NARELA+INDUSTRIAL+AREA+Police+Station+Delhi,VERIFIED
SHALIMAR BAGH,3318,28.7170558,77.1571919,SHALIMAR BAGH,https://www.google.com/maps/search/?api=1&query=SHALIMAR+BAGH+Police+Station+Delhi,VERIFIED
SUBHASH PLACE,3317,28.6892476,77.1438691,SUBHASH PLACE,https://www.google.com/maps/search/?api=1&query=SUBHASH+PLACE+Police+Station+Delhi,VERIFIED
NEB SARAI,3291,28.4989012,77.2135403,NEB SARAI,https://www.google.com/maps/search/?api=1&query=NEB+SARAI+Police+Station+Delhi,VERIFIED
KANJHAWALA,3289,28.7257488,77.0033595,KANJHAWALA,https://www.google.com/maps/search/?api=1&query=KANJHAWALA+Police+Station+Delhi,VERIFIED
NEW USMAN PUR,3234,28.6727083,77.2617342,NEW USMAN PUR,https://www.google.com/maps/search/?api=1&query=NEW+USMAN+PUR+Police+Station+Delhi,VERIFIED
PUNJABI BAGH,3150,28.674482,77.1317512,PUNJABI BAGH,https://www.google.com/maps/search/?api=1&query=PUNJABI+BAGH+Police+Station+Delhi,VERIFIED
CHHAWLA,3150,28.5868886,76.9949589,CHHAWLA,https://www.google.com/maps/search/?api=1&query=CHHAWLA+Police+Station+Delhi,VERIFIED
WELCOME,3042,28.6820548,77.278511,WELCOME,https://www.google.com/maps/search/?api=1&query=WELCOME+Police+Station+Delhi,VERIFIED
MALVIYA NAGAR,3037,28.5307879,77.2045293,MALVIYA NAGAR,https://www.google.com/maps/search/?api=1&query=MALVIYA+NAGAR+Police+Station+Delhi,VERIFIED
SARAI ROHILLA,3017,28.6687963,77.1834816,SARAI ROHILLA,https://www.google.com/maps/search/?api=1&query=SARAI+ROHILLA+Police+Station+Delhi,VERIFIED
BHAJAN PURA,3016,28.701171,77.264838,BHAJAN PURA,https://www.google.com/maps/search/?api=1&query=BHAJAN+PURA+Police+Station+Delhi,VERIFIED
MANDAWALI,2963,28.624833,77.3063944,MANDAWALI,https://www.google.com/maps/search/?api=1&query=MANDAWALI+Police+Station+Delhi,VERIFIED
VASANT KUNJ SOUTH,2855,28.5352924,77.1519484,VASANT KUNJ SOUTH,https://www.google.com/maps/search/?api=1&query=VASANT+KUNJ+SOUTH+Police+Station+Delhi,VERIFIED
RAJOURI GARDEN,2847,28.6514951,77.1200363,RAJOURI GARDEN,https://www.google.com/maps/search/?api=1&query=RAJOURI+GARDEN+Police+Station+Delhi,VERIFIED
NAND NAGARI,2842,28.6972212,77.3070259,NAND NAGARI,https://www.google.com/maps/search/?api=1&query=NAND+NAGARI+Police+Station+Delhi,VERIFIED
BHARAT NAGAR,2811,28.8460721,77.0890115,BHARAT NAGAR,https://www.google.com/maps/search/?api=1&query=BHARAT+NAGAR+Police+Station+Delhi,VERIFIED
SWARUP NAGAR,2803,28.7587772,77.160709,SWARUP NAGAR,https://www.google.com/maps/search/?api=1&query=SWARUP+NAGAR+Police+Station+Delhi,VERIFIED
FATEHPUR BERI,2795,28.4655076,77.1507908,FATEHPUR BERI,https://www.google.com/maps/search/?api=1&query=FATEHPUR+BERI+Police+Station+Delhi,VERIFIED
DWARKA NORTH,2783,28.5909231,77.0283561,DWARKA NORTH,https://www.google.com/maps/search/?api=1&query=DWARKA+NORTH+Police+Station+Delhi,VERIFIED
OKHLA INDL. AREA,2780,28.5266897,77.2748879,OKHLA INDL. AREA,https://www.google.com/maps/search/?api=1&query=OKHLA+INDL.+AREA+Police+Station+Delhi,VERIFIED
G.T.B. ENCLAVE,2773,28.6855831,77.3157174,G.T.B. ENCLAVE,https://www.google.com/maps/search/?api=1&query=G.T.B.+ENCLAVE+Police+Station+Delhi,VERIFIED
JAMIA NAGAR,2772,28.5612157,77.2920031,JAMIA NAGAR,https://www.google.com/maps/search/?api=1&query=JAMIA+NAGAR+Police+Station+Delhi,VERIFIED
JYOTI NAGAR,2754,28.6944436,77.2982537,JYOTI NAGAR,https://www.google.com/maps/search/?api=1&query=JYOTI+NAGAR+Police+Station+Delhi,VERIFIED
FARSH BAZAR,2736,28.6649634,77.2862913,FARSH BAZAR,https://www.google.com/maps/search/?api=1&query=FARSH+BAZAR+Police+Station+Delhi,VERIFIED
GANDHI NAGAR,2733,28.6599344,77.2671545,GANDHI NAGAR,https://www.google.com/maps/search/?api=1&query=GANDHI+NAGAR+Police+Station+Delhi,VERIFIED
PREM NAGAR,2723,28.7011352,77.0504511,PREM NAGAR,https://www.google.com/maps/search/?api=1&query=PREM+NAGAR+Police+Station+Delhi,VERIFIED
MUNDKA,2661,28.6705328,76.9609521,MUNDKA,https://www.google.com/maps/search/?api=1&query=MUNDKA+Police+Station+Delhi,VERIFIED
SAMAIPUR BADLI,2590,28.7252025,77.1413917,SAMAIPUR BADLI,https://www.google.com/maps/search/?api=1&query=SAMAIPUR+BADLI+Police+Station+Delhi,VERIFIED
SARITA VIHAR,2573,28.5401981,77.2815046,SARITA VIHAR,https://www.google.com/maps/search/?api=1&query=SARITA+VIHAR+Police+Station+Delhi,VERIFIED
ADARSH NAGAR,2483,28.7099635,77.1752218,ADARSH NAGAR,https://www.google.com/maps/search/?api=1&query=ADARSH+NAGAR+Police+Station+Delhi,VERIFIED
K.N. KATJU MARG,2467,28.7308639,77.1216619,K.N. KATJU MARG,https://www.google.com/maps/search/?api=1&query=K.N.+KATJU+MARG+Police+Station+Delhi,VERIFIED
HARI NAGAR,2463,28.6232487,77.109082,HARI NAGAR,https://www.google.com/maps/search/?api=1&query=HARI+NAGAR+Police+Station+Delhi,VERIFIED
DAYAL PUR,2455,28.7020515,77.2863039,DAYAL PUR,https://www.google.com/maps/search/?api=1&query=DAYAL+PUR+Police+Station+Delhi,VERIFIED
JAGAT PURI,2431,28.6437715,77.2840574,JAGAT PURI,https://www.google.com/maps/search/?api=1&query=JAGAT+PURI+Police+Station+Delhi,VERIFIED
WAZIRABAD,2407,28.7072433,77.2243816,WAZIRABAD,https://www.google.com/maps/search/?api=1&query=WAZIRABAD+Police+Station+Delhi,VERIFIED
PATEL NAGAR,2391,28.6523746,77.1580838,PATEL NAGAR,https://www.google.com/maps/search/?api=1&query=PATEL+NAGAR+Police+Station+Delhi,VERIFIED
MOTI NAGAR,2315,28.6603412,77.1466663,MOTI NAGAR,https://www.google.com/maps/search/?api=1&query=MOTI+NAGAR+Police+Station+Delhi,VERIFIED
ASHOK VIHAR,2304,28.6926439,77.1734595,ASHOK VIHAR,https://www.google.com/maps/search/?api=1&query=ASHOK+VIHAR+Police+Station+Delhi,VERIFIED
SHAKAR PUR,2260,28.6374948,77.2707281,SHAKAR PUR,https://www.google.com/maps/search/?api=1&query=SHAKAR+PUR+Police+Station+Delhi,VERIFIED
MAHENDRA PARK,2253,28.7256591,77.164016,MAHENDRA PARK,https://www.google.com/maps/search/?api=1&query=MAHENDRA+PARK+Police+Station+Delhi,VERIFIED
SONIA VIHAR,2244,28.7459491,77.2457734,SONIA VIHAR,https://www.google.com/maps/search/?api=1&query=SONIA+VIHAR+Police+Station+Delhi,VERIFIED
GEETA COLONY,2210,28.6555174,77.2762928,GEETA COLONY,https://www.google.com/maps/search/?api=1&query=GEETA+COLONY+Police+Station+Delhi,VERIFIED
AMAR COLONY,2179,28.5593509,77.2406406,AMAR COLONY,https://www.google.com/maps/search/?api=1&query=AMAR+COLONY+Police+Station+Delhi,VERIFIED
ANAND PARVAT,2159,28.6599834,77.1728601,ANAND PARVAT,https://www.google.com/maps/search/?api=1&query=ANAND+PARVAT+Police+Station+Delhi,VERIFIED
SADAR BAZAR,2127,28.6265487,77.1675235,SADAR BAZAR,https://www.google.com/maps/search/?api=1&query=SADAR+BAZAR+Police+Station+Delhi,VERIFIED
GHAZIPUR,2121,28.6244964,77.332474,GHAZIPUR,https://www.google.com/maps/search/?api=1&query=GHAZIPUR+Police+Station+Delhi,VERIFIED
RAJ PARK,2033,28.6942598,77.0822069,RAJ PARK,https://www.google.com/maps/search/?api=1&query=RAJ+PARK+Police+Station+Delhi,VERIFIED
SUBZI MANDI,2013,28.6690213,77.2077232,SUBZI MANDI,https://www.google.com/maps/search/?api=1&query=SUBZI+MANDI+Police+Station+Delhi,VERIFIED
BABA HARI DASS NAGAR,2013,28.6389897,76.9611102,BABA HARI DASS NAGAR,https://www.google.com/maps/search/?api=1&query=BABA+HARI+DASS+NAGAR+Police+Station+Delhi,VERIFIED
VASANT KUNJ NORTH,1984,28.5351471,77.1519798,VASANT KUNJ NORTH,https://www.google.com/maps/search/?api=1&query=VASANT+KUNJ+NORTH+Police+Station+Delhi,VERIFIED
PUL PRAHLAD PUR,1983,28.5019693,77.2906767,PUL PRAHLAD PUR,https://www.google.com/maps/search/?api=1&query=PUL+PRAHLAD+PUR+Police+Station+Delhi,VERIFIED
TIMAR PUR,1978,28.7068541,77.224267,TIMAR PUR,https://www.google.com/maps/search/?api=1&query=TIMAR+PUR+Police+Station+Delhi,VERIFIED
MADHU VIHAR,1945,28.624833,77.3063944,MADHU VIHAR,https://www.google.com/maps/search/?api=1&query=MADHU+VIHAR+Police+Station+Delhi,VERIFIED
SEELAM PUR,1915,28.6744173,77.2675753,SEELAM PUR,https://www.google.com/maps/search/?api=1&query=SEELAM+PUR+Police+Station+Delhi,VERIFIED
KIRTI NAGAR,1907,28.6402297,77.1352535,KIRTI NAGAR,https://www.google.com/maps/search/?api=1&query=KIRTI+NAGAR+Police+Station+Delhi,VERIFIED
KHYALA,1888,28.6517881,77.0964184,KHYALA,https://www.google.com/maps/search/?api=1&query=KHYALA+Police+Station+Delhi,VERIFIED
SEEMA PURI,1870,28.6843727,77.3217173,SEEMA PURI,https://www.google.com/maps/search/?api=1&query=SEEMA+PURI+Police+Station+Delhi,VERIFIED
KIRSHNA NAGAR,1864,28.6672573,77.2802151,KIRSHNA NAGAR,https://www.google.com/maps/search/?api=1&query=KIRSHNA+NAGAR+Police+Station+Delhi,VERIFIED
MAYUR VIHAR,1847,28.6071444,77.304062,MAYUR VIHAR,https://www.google.com/maps/search/?api=1&query=MAYUR+VIHAR+Police+Station+Delhi,VERIFIED
KESHAV PURAM,1845,28.6839467,77.1596431,KESHAV PURAM,https://www.google.com/maps/search/?api=1&query=KESHAV+PURAM+Police+Station+Delhi,VERIFIED
VIVEK VIHAR,1842,28.6669239,77.3064537,VIVEK VIHAR,https://www.google.com/maps/search/?api=1&query=VIVEK+VIHAR+Police+Station+Delhi,VERIFIED
MODEL TOWN,1829,28.7025164,77.1940641,MODEL TOWN,https://www.google.com/maps/search/?api=1&query=MODEL+TOWN+Police+Station+Delhi,VERIFIED
SULTANPURI,1810,28.702765,77.0789265,SULTANPURI,https://www.google.com/maps/search/?api=1&query=SULTANPURI+Police+Station+Delhi,VERIFIED
NABI KARIM,1803,28.649989,77.2174537,NABI KARIM,https://www.google.com/maps/search/?api=1&query=NABI+KARIM+Police+Station+Delhi,VERIFIED
PANDAV NAGAR,1790,28.6202041,77.3028104,PANDAV NAGAR,https://www.google.com/maps/search/?api=1&query=PANDAV+NAGAR+Police+Station+Delhi,VERIFIED
MANSAROVAR PARK,1783,28.6795099,77.3018622,MANSAROVAR PARK,https://www.google.com/maps/search/?api=1&query=MANSAROVAR+PARK+Police+Station+Delhi,VERIFIED
NEW USMANPUR,1723,28.6727083,77.2617342,NEW USMANPUR,https://www.google.com/maps/search/?api=1&query=NEW+USMANPUR+Police+Station+Delhi,VERIFIED
VASANT VIHAR,1722,28.5577146,77.1687209,VASANT VIHAR,https://www.google.com/maps/search/?api=1&query=VASANT+VIHAR+Police+Station+Delhi,VERIFIED
MOHAN GARDEN,1714,28.6293835,77.0343079,MOHAN GARDEN,https://www.google.com/maps/search/?api=1&query=MOHAN+GARDEN+Police+Station+Delhi,VERIFIED
DELHI CANTT,1700,28.5989957,77.1240885,DELHI CANTT,https://www.google.com/maps/search/?api=1&query=DELHI+CANTT+Police+Station+Delhi,VERIFIED
HAUZ KHAS,1698,28.5492315,77.2090582,HAUZ KHAS,https://www.google.com/maps/search/?api=1&query=HAUZ+KHAS+Police+Station+Delhi,VERIFIED
ZAFRABAD,1666,28.68865,77.2733796,ZAFRABAD,https://www.google.com/maps/search/?api=1&query=ZAFRABAD+Police+Station+Delhi,VERIFIED
BUDH VIHAR,1649,28.7171058,77.1080165,BUDH VIHAR,https://www.google.com/maps/search/?api=1&query=BUDH+VIHAR+Police+Station+Delhi,VERIFIED
SAFDARJUNG ENCLAVE,1642,28.5651644,77.1998218,SAFDARJUNG ENCLAVE,https://www.google.com/maps/search/?api=1&query=SAFDARJUNG+ENCLAVE+Police+Station+Delhi,VERIFIED
INDER PURI,1613,28.6310982,77.1452111,INDER PURI,https://www.google.com/maps/search/?api=1&query=INDER+PURI+Police+Station+Delhi,VERIFIED
NAND NAGRI,1576,28.6972212,77.3070259,NAND NAGRI,https://www.google.com/maps/search/?api=1&query=NAND+NAGRI+Police+Station+Delhi,VERIFIED
SWAROOP NAGAR,1573,28.7584515,77.1561361,SWAROOP NAGAR,https://www.google.com/maps/search/?api=1&query=SWAROOP+NAGAR+Police+Station+Delhi,VERIFIED
KALYANPURI,1572,28.6133349,77.3172558,KALYANPURI,https://www.google.com/maps/search/?api=1&query=KALYANPURI+Police+Station+Delhi,VERIFIED
SUNLIGHT COLONY,1548,28.5781451,77.2603588,SUNLIGHT COLONY,https://www.google.com/maps/search/?api=1&query=SUNLIGHT+COLONY+Police+Station+Delhi,VERIFIED
SOUTH ROHINI,1539,28.7024649,77.1153212,SOUTH ROHINI,https://www.google.com/maps/search/?api=1&query=SOUTH+ROHINI+Police+Station+Delhi,VERIFIED
NEW FRIENDS COLONY,1526,28.5623339,77.2673778,NEW FRIENDS COLONY,https://www.google.com/maps/search/?api=1&query=NEW+FRIENDS+COLONY+Police+Station+Delhi,VERIFIED
MUKHERJI NAGAR,1511,28.6994813,77.2070915,MUKHERJI NAGAR,https://www.google.com/maps/search/?api=1&query=MUKHERJI+NAGAR+Police+Station+Delhi,VERIFIED
CHHAWALA,1497,28.5868886,76.9949589,CHHAWALA,https://www.google.com/maps/search/?api=1&query=CHHAWALA+Police+Station+Delhi,VERIFIED
PARSAD NAGAR,1496,28.6478823,77.1807615,PARSAD NAGAR,https://www.google.com/maps/search/?api=1&query=PARSAD+NAGAR+Police+Station+Delhi,VERIFIED
NARAINA,1487,28.6330924,77.137849,NARAINA,https://www.google.com/maps/search/?api=1&query=NARAINA+Police+Station+Delhi,VERIFIED
DWARKA SOUTH,1484,28.5781133,77.0667794,DWARKA SOUTH,https://www.google.com/maps/search/?api=1&query=DWARKA+SOUTH+Police+Station+Delhi,VERIFIED
PRASHANT VIHAR,1483,28.7179859,77.127254,PRASHANT VIHAR,https://www.google.com/maps/search/?api=1&query=PRASHANT+VIHAR+Police+Station+Delhi,VERIFIED
NORTH ROHINI,1473,28.7087886,77.1179824,NORTH ROHINI,https://www.google.com/maps/search/?api=1&query=NORTH+ROHINI+Police+Station+Delhi,VERIFIED
ANAND VIHAR,1472,28.6541672,77.2934096,ANAND VIHAR,https://www.google.com/maps/search/?api=1&query=ANAND+VIHAR+Police+Station+Delhi,VERIFIED
LAJPAT NAGAR,1401,28.5680581,77.2409593,LAJPAT NAGAR,https://www.google.com/maps/search/?api=1&query=LAJPAT+NAGAR+Police+Station+Delhi,VERIFIED
R K PURAM,1380,28.5653906,77.179925,R K PURAM,https://www.google.com/maps/search/?api=1&query=R+K+PURAM+Police+Station+Delhi,VERIFIED
RANI BAGH,1362,28.6977825,77.119464,RANI BAGH,https://www.google.com/maps/search/?api=1&query=RANI+BAGH+Police+Station+Delhi,VERIFIED
TIGRI,1348,28.5004574,77.2342164,TIGRI,https://www.google.com/maps/search/?api=1&query=TIGRI+Police+Station+Delhi,VERIFIED
NAJAF GARH,1345,28.609976,76.9828648,NAJAF GARH,https://www.google.com/maps/search/?api=1&query=NAJAF+GARH+Police+Station+Delhi,VERIFIED
PAHAR GANJ,1254,28.6455835,77.2089033,PAHAR GANJ,https://www.google.com/maps/search/?api=1&query=PAHAR+GANJ+Police+Station+Delhi,VERIFIED
KOTLA MUBARKPUR,1240,28.5759773,77.2251948,KOTLA MUBARKPUR,https://www.google.com/maps/search/?api=1&query=KOTLA+MUBARKPUR+Police+Station+Delhi,VERIFIED
RANJIT NAGAR,1234,28.6474433,77.1588012,RANJIT NAGAR,https://www.google.com/maps/search/?api=1&query=RANJIT+NAGAR+Police+Station+Delhi,VERIFIED
DWARKA,1230,,,,https://www.google.com/maps/search/?api=1&query=DWARKA+Police+Station+Delhi,
SHAHADRA,1214,28.6739822,77.279896,SHAHADRA,https://www.google.com/maps/search/?api=1&query=SHAHADRA+Police+Station+Delhi,VERIFIED
N.D.L.S.,1179,28.7002806,77.167691,N.D.L.S.,https://www.google.com/maps/search/?api=1&query=N.D.L.S.+Police+Station+Delhi,VERIFIED
KALKAJI,1168,28.5473406,77.2562221,KALKAJI,https://www.google.com/maps/search/?api=1&query=KALKAJI+Police+Station+Delhi,VERIFIED
MAURYA ENCLAVE,1160,28.7002106,77.1460739,MAURYA ENCLAVE,https://www.google.com/maps/search/?api=1&query=MAURYA+ENCLAVE+Police+Station+Delhi,VERIFIED
ANAND PARBAT,1146,28.6599834,77.1728601,ANAND PARBAT,https://www.google.com/maps/search/?api=1&query=ANAND+PARBAT+Police+Station+Delhi,VERIFIED
BADARPUR,1137,28.4937601,77.3038474,BADARPUR,https://www.google.com/maps/search/?api=1&query=BADARPUR+Police+Station+Delhi,VERIFIED
JANAK PURI,1126,28.62842,77.0819094,JANAK PURI,https://www.google.com/maps/search/?api=1&query=JANAK+PURI+Police+Station+Delhi,VERIFIED
SEEMAPURI,1122,28.6843727,77.3217173,SEEMAPURI,https://www.google.com/maps/search/?api=1&query=SEEMAPURI+Police+Station+Delhi,VERIFIED
MAIDAN GARHI,1119,28.4587131,77.2024138,MAIDAN GARHI,https://www.google.com/maps/search/?api=1&query=MAIDAN+GARHI+Police+Station+Delhi,VERIFIED
VIKAS PURI,1116,28.6300426,77.0682778,VIKAS PURI,https://www.google.com/maps/search/?api=1&query=VIKAS+PURI+Police+Station+Delhi,VERIFIED
JAFRABAD,1103,28.6790219,77.272911,JAFRABAD,https://www.google.com/maps/search/?api=1&query=JAFRABAD+Police+Station+Delhi,VERIFIED
MANDAWLI FAZAL PUR,1065,28.624833,77.3063944,MANDAWLI FAZAL PUR,https://www.google.com/maps/search/?api=1&query=MANDAWLI+FAZAL+PUR+Police+Station+Delhi,VERIFIED
KALINDI KUNJ,1050,28.5306364,77.3186911,KALINDI KUNJ,https://www.google.com/maps/search/?api=1&query=KALINDI+KUNJ+Police+Station+Delhi,VERIFIED
KOTWALI,1048,28.6586456,77.231158,KOTWALI,https://www.google.com/maps/search/?api=1&query=KOTWALI+Police+Station+Delhi,VERIFIED
OKHLA INDUSTRIAL AREA,1039,28.5266897,77.2748879,OKHLA INDUSTRIAL AREA,https://www.google.com/maps/search/?api=1&query=OKHLA+INDUSTRIAL+AREA+Police+Station+Delhi,VERIFIED
KALANDI KUNJ,1038,28.5306364,77.3186911,KALANDI KUNJ,https://www.google.com/maps/search/?api=1&query=KALANDI+KUNJ+Police+Station+Delhi,VERIFIED
BABA HARIDAS NAGAR,1038,28.6389897,76.9611102,BABA HARIDAS NAGAR,https://www.google.com/maps/search/?api=1&query=BABA+HARIDAS+NAGAR+Police+Station+Delhi,VERIFIED
PASCHIM VIHAR WEST,992,28.6739588,77.0943709,PASCHIM VIHAR WEST,https://www.google.com/maps/search/?api=1&query=PASCHIM+VIHAR+WEST+Police+Station+Delhi,VERIFIED
LAXMI NAGAR,981,28.6373138,77.2705921,LAXMI NAGAR,https://www.google.com/maps/search/?api=1&query=LAXMI+NAGAR+Police+Station+Delhi,VERIFIED
SAROJNI NAGAR,973,28.5744866,77.1994036,SAROJNI NAGAR,https://www.google.com/maps/search/?api=1&query=SAROJNI+NAGAR+Police+Station+Delhi,VERIFIED
HAUZ QAZI,952,28.6499783,77.2257523,HAUZ QAZI,https://www.google.com/maps/search/?api=1&query=HAUZ+QAZI+Police+Station+Delhi,VERIFIED
GULABI BAGH,951,28.6697924,77.1923504,GULABI BAGH,https://www.google.com/maps/search/?api=1&query=GULABI+BAGH+Police+Station+Delhi,VERIFIED
MANDIR MARG,915,28.6382258,77.2027845,MANDIR MARG,https://www.google.com/maps/search/?api=1&query=MANDIR+MARG+Police+Station+Delhi,VERIFIED
KAROL BAGH,905,28.6523644,77.19293,KAROL BAGH,https://www.google.com/maps/search/?api=1&query=KAROL+BAGH+Police+Station+Delhi,VERIFIED
PREET VIHAR,905,28.6392927,77.2953898,PREET VIHAR,https://www.google.com/maps/search/?api=1&query=PREET+VIHAR+Police+Station+Delhi,VERIFIED
CHANDANI MAHAL,904,28.6430044,77.2346531,CHANDANI MAHAL,https://www.google.com/maps/search/?api=1&query=CHANDANI+MAHAL+Police+Station+Delhi,VERIFIED
HAZRAT NIZAMUDDIN,899,28.5901331,77.2486742,HAZRAT NIZAMUDDIN,https://www.google.com/maps/search/?api=1&query=HAZRAT+NIZAMUDDIN+Police+Station+Delhi,VERIFIED
MAYUR VIHAR PH-I,898,28.612215,77.3034319,MAYUR VIHAR PH-I,https://www.google.com/maps/search/?api=1&query=MAYUR+VIHAR+PH-I+Police+Station+Delhi,VERIFIED
KRISHNA NAGAR,888,28.6672573,77.2802151,KRISHNA NAGAR,https://www.google.com/maps/search/?api=1&query=KRISHNA+NAGAR+Police+Station+Delhi,VERIFIED
KISHAN GARH,879,28.537465,77.1882146,KISHAN GARH,https://www.google.com/maps/search/?api=1&query=KISHAN+GARH+Police+Station+Delhi,VERIFIED
SAKET,873,28.526216,77.217254,SAKET,https://www.google.com/maps/search/?api=1&query=SAKET+Police+Station+Delhi,VERIFIED
JAFAR PUR KALAN,853,28.5959186,76.9147035,JAFAR PUR KALAN,https://www.google.com/maps/search/?api=1&query=JAFAR+PUR+KALAN+Police+Station+Delhi,VERIFIED
KASHMIRI GATE,850,28.6625304,77.2312988,KASHMIRI GATE,https://www.google.com/maps/search/?api=1&query=KASHMIRI+GATE+Police+Station+Delhi,VERIFIED
SHAHEEN BAGH,840,28.5492259,77.2963284,SHAHEEN BAGH,https://www.google.com/maps/search/?api=1&query=SHAHEEN+BAGH+Police+Station+Delhi,VERIFIED
PASCHIM VIHAR,840,28.6739588,77.0943709,PASCHIM VIHAR,https://www.google.com/maps/search/?api=1&query=PASCHIM+VIHAR+Police+Station+Delhi,VERIFIED
MAYA PURI,839,28.6213326,77.116761,MAYA PURI,https://www.google.com/maps/search/?api=1&query=MAYA+PURI+Police+Station+Delhi,VERIFIED
ROOP NAGAR,829,28.6847741,77.2027103,ROOP NAGAR,https://www.google.com/maps/search/?api=1&query=ROOP+NAGAR+Police+Station+Delhi,VERIFIED
CIVIL LINE,820,28.6886416,77.2216189,CIVIL LINE,https://www.google.com/maps/search/?api=1&query=CIVIL+LINE+Police+Station+Delhi,VERIFIED
DWARKA SECTOR 23,788,28.5645101,77.0589427,DWARKA SECTOR 23,https://www.google.com/maps/search/?api=1&query=DWARKA+SECTOR+23+Police+Station+Delhi,VERIFIED
IP ESTATE,785,28.6271096,77.2473549,IP ESTATE,https://www.google.com/maps/search/?api=1&query=IP+ESTATE+Police+Station+Delhi,VERIFIED
LAHORI GATE,770,28.6555053,77.2190116,LAHORI GATE,https://www.google.com/maps/search/?api=1&query=LAHORI+GATE+Police+Station+Delhi,VERIFIED
GREATER KAILASH,766,28.5455735,77.2429839,GREATER KAILASH,https://www.google.com/maps/search/?api=1&query=GREATER+KAILASH+Police+Station+Delhi,VERIFIED
MIANWALI NAGAR,751,28.6741948,77.0883464,MIANWALI NAGAR,https://www.google.com/maps/search/?api=1&query=MIANWALI+NAGAR+Police+Station+Delhi,VERIFIED
DBG ROAD,732,28.6492505,77.2009166,DBG ROAD,https://www.google.com/maps/search/?api=1&query=DBG+ROAD+Police+Station+Delhi,VERIFIED
PASCHIM VIHAR EAST,715,28.6710675,77.1009481,PASCHIM VIHAR EAST,https://www.google.com/maps/search/?api=1&query=PASCHIM+VIHAR+EAST+Police+Station+Delhi,VERIFIED
BARA HINDU RAO,711,28.6656672,77.2083877,BARA HINDU RAO,https://www.google.com/maps/search/?api=1&query=BARA+HINDU+RAO+Police+Station+Delhi,VERIFIED
SHASTRI PARK,697,28.6728158,77.2569505,SHASTRI PARK,https://www.google.com/maps/search/?api=1&query=SHASTRI+PARK+Police+Station+Delhi,VERIFIED
R.M.D. MAIN,685,28.6368139,77.1855965,R.M.D. MAIN,https://www.google.com/maps/search/?api=1&query=R.M.D.+MAIN+Police+Station+Delhi,VERIFIED
SECTOR 23 DWARKA,649,28.5645101,77.0589427,SECTOR 23 DWARKA,https://www.google.com/maps/search/?api=1&query=SECTOR+23+DWARKA+Police+Station+Delhi,VERIFIED
PATPARGANJ INDUSTRIAL AREA,648,28.6450979,77.3158199,PATPARGANJ INDUSTRIAL AREA,https://www.google.com/maps/search/?api=1&query=PATPARGANJ+INDUSTRIAL+AREA+Police+Station+Delhi,VERIFIED
SOUTH CAMPUS,637,28.5814733,77.1701106,SOUTH CAMPUS,https://www.google.com/maps/search/?api=1&query=SOUTH+CAMPUS+Police+Station+Delhi,VERIFIED
CHANDNI MAHAL,637,28.6430044,77.2346531,CHANDNI MAHAL,https://www.google.com/maps/search/?api=1&query=CHANDNI+MAHAL+Police+Station+Delhi,VERIFIED
DEFENCE COLONY,637,28.5648392,77.2329026,DEFENCE COLONY,https://www.google.com/maps/search/?api=1&query=DEFENCE+COLONY+Police+Station+Delhi,VERIFIED
SEELAMPUR,623,28.6744173,77.2675753,SEELAMPUR,https://www.google.com/maps/search/?api=1&query=SEELAMPUR+Police+Station+Delhi,VERIFIED
MUKHERJEE NAGAR,601,28.6994813,77.2070915,MUKHERJEE NAGAR,https://www.google.com/maps/search/?api=1&query=MUKHERJEE+NAGAR+Police+Station+Delhi,VERIFIED
JAMA MASJID,589,28.6525864,77.2337638,JAMA MASJID,https://www.google.com/maps/search/?api=1&query=JAMA+MASJID+Police+Station+Delhi,VERIFIED
CHANAKYA PURI,547,28.6029568,77.1958779,CHANAKYA PURI,https://www.google.com/maps/search/?api=1&query=CHANAKYA+PURI+Police+Station+Delhi,VERIFIED
LODHI COLONY,538,28.5820818,77.2140776,LODHI COLONY,https://www.google.com/maps/search/?api=1&query=LODHI+COLONY+Police+Station+Delhi,VERIFIED
K.M. PUR,513,28.5759773,77.2251948,K.M. PUR,https://www.google.com/maps/search/?api=1&query=K.M.+PUR+Police+Station+Delhi,VERIFIED
KAMLA MARKET,503,28.642506,77.226012,KAMLA MARKET,https://www.google.com/maps/search/?api=1&query=KAMLA+MARKET+Police+Station+Delhi,VERIFIED
PRASAD NAGAR,500,28.6478823,77.1807615,PRASAD NAGAR,https://www.google.com/maps/search/?api=1&query=PRASAD+NAGAR+Police+Station+Delhi,VERIFIED
TILAK MARG,500,28.6179422,77.235467,TILAK MARG,https://www.google.com/maps/search/?api=1&query=TILAK+MARG+Police+Station+Delhi,VERIFIED
R. K. PURAM,492,28.5653906,77.179925,R. K. PURAM,https://www.google.com/maps/search/?api=1&query=R.+K.+PURAM+Police+Station+Delhi,VERIFIED
VIKASPURI,483,28.6300426,77.0682778,VIKASPURI,https://www.google.com/maps/search/?api=1&query=VIKASPURI+Police+Station+Delhi,VERIFIED
SHAHDARA,480,28.6739822,77.279896,SHAHDARA,https://www.google.com/maps/search/?api=1&query=SHAHDARA+Police+Station+Delhi,VERIFIED
BARAKHAMBA ROAD,468,28.6309023,77.2254715,BARAKHAMBA ROAD,https://www.google.com/maps/search/?api=1&query=BARAKHAMBA+ROAD+Police+Station+Delhi,VERIFIED
DARYA GANJ,454,28.6420324,77.2408132,DARYA GANJ,https://www.google.com/maps/search/?api=1&query=DARYA+GANJ+Police+Station+Delhi,VERIFIED
JAFFARPUR KALAN,424,28.5959186,76.9147035,JAFFARPUR KALAN,https://www.google.com/maps/search/?api=1&query=JAFFARPUR+KALAN+Police+Station+Delhi,VERIFIED
RAJINDER NAGAR,424,28.6348743,77.1829307,RAJINDER NAGAR,https://www.google.com/maps/search/?api=1&query=RAJINDER+NAGAR+Police+Station+Delhi,VERIFIED
NORTH AVENUE,416,28.6179988,77.1990998,NORTH AVENUE,https://www.google.com/maps/search/?api=1&query=NORTH+AVENUE+Police+Station+Delhi,VERIFIED
MAYAPURI,410,28.6213326,77.116761,MAYAPURI,https://www.google.com/maps/search/?api=1&query=MAYAPURI+Police+Station+Delhi,VERIFIED
TIMARPUR,398,28.7066377,77.2241734,TIMARPUR,https://www.google.com/maps/search/?api=1&query=TIMARPUR+Police+Station+Delhi,VERIFIED
SHAKARPUR,393,28.6374948,77.2707281,SHAKARPUR,https://www.google.com/maps/search/?api=1&query=SHAKARPUR+Police+Station+Delhi,VERIFIED
D.B.G. ROAD,369,28.6492505,77.2009166,D.B.G. ROAD,https://www.google.com/maps/search/?api=1&query=D.B.G.+ROAD+Police+Station+Delhi,VERIFIED
CIVIL LINES,338,28.6886416,77.2216189,CIVIL LINES,https://www.google.com/maps/search/?api=1&query=CIVIL+LINES+Police+Station+Delhi,VERIFIED
PARLIAMENT STREET,337,28.6254877,77.2142835,PARLIAMENT STREET,https://www.google.com/maps/search/?api=1&query=PARLIAMENT+STREET+Police+Station+Delhi,VERIFIED
CHITRANJAN PARK,333,28.5370264,77.252943,CHITRANJAN PARK,https://www.google.com/maps/search/?api=1&query=CHITRANJAN+PARK+Police+Station+Delhi,VERIFIED
I.P.ESTATE,324,28.6271096,77.2473549,I.P.ESTATE,https://www.google.com/maps/search/?api=1&query=I.P.ESTATE+Police+Station+Delhi,VERIFIED
HAZRAT NIZAMUDIN STATION,323,28.5901331,77.2487388,HAZRAT NIZAMUDIN STATION,https://www.google.com/maps/search/?api=1&query=HAZRAT+NIZAMUDIN+STATION+Police+Station+Delhi,VERIFIED
CONNAUGHT PLACE,321,28.6300253,77.2141997,CONNAUGHT PLACE,https://www.google.com/maps/search/?api=1&query=CONNAUGHT+PLACE+Police+Station+Delhi,VERIFIED
TUGLAK ROAD,316,28.6079527,77.2230035,TUGLAK ROAD,https://www.google.com/maps/search/?api=1&query=TUGLAK+ROAD+Police+Station+Delhi,VERIFIED
IGI AIRPORT,304,28.5536769,77.091606,IGI AIRPORT,https://www.google.com/maps/search/?api=1&query=IGI+AIRPORT+Police+Station+Delhi,VERIFIED
NEW DELHI RLY. STN.,292,28.6273016,77.2578403,NEW DELHI RLY. STN.,https://www.google.com/maps/search/?api=1&query=NEW+DELHI+RLY.+STN.+Police+Station+Delhi,VERIFIED
SAROJINI NAGAR,280,28.5744866,77.1994036,SAROJINI NAGAR,https://www.google.com/maps/search/?api=1&query=SAROJINI+NAGAR+Police+Station+Delhi,VERIFIED
HAZARAT NIZAMUDDIN,263,28.5901331,77.2486742,HAZARAT NIZAMUDDIN,https://www.google.com/maps/search/?api=1&query=HAZARAT+NIZAMUDDIN+Police+Station+Delhi,VERIFIED
ANAND VIHAR RAILWAY STATION,248,28.6480127,77.3148709,ANAND VIHAR RAILWAY STATION,https://www.google.com/maps/search/?api=1&query=ANAND+VIHAR+RAILWAY+STATION+Police+Station+Delhi,VERIFIED
KASHMERI GATE,247,28.6625304,77.2312988,KASHMERI GATE,https://www.google.com/maps/search/?api=1&query=KASHMERI+GATE+Police+Station+Delhi,VERIFIED
LODI COLONY,191,28.5820818,77.2140776,LODI COLONY,https://www.google.com/maps/search/?api=1&query=LODI+COLONY+Police+Station+Delhi,VERIFIED
MOURICE NAGAR,186,28.6924958,77.2066113,MOURICE NAGAR,https://www.google.com/maps/search/?api=1&query=MOURICE+NAGAR+Police+Station+Delhi,VERIFIED
CHANKYA PURI,164,28.6029568,77.1958779,CHANKYA PURI,https://www.google.com/maps/search/?api=1&query=CHANKYA+PURI+Police+Station+Delhi,VERIFIED
METRO RAILWAY STATION KASHMIRI GATE,118,28.6656152,77.2298962,METRO RAILWAY STATION KASHMIRI GATE,https://www.google.com/maps/search/?api=1&query=METRO+RAILWAY+STATION+KASHMIRI+GATE+Police+Station+Delhi,VERIFIED
OLD DELHI (DELHI MAIN) RLY. STN.,112,28.6603776,77.2294078,OLD DELHI (DELHI MAIN) RLY. STN.,https://www.google.com/maps/search/?api=1&query=OLD+DELHI+(DELHI+MAIN)+RLY.+STN.+Police+Station+Delhi,VERIFIED
I.G.I.AIRPORT,107,28.5536769,77.091606,I.G.I.AIRPORT,https://www.google.com/maps/search/?api=1&query=I.G.I.AIRPORT+Police+Station+Delhi,VERIFIED
SARAI ROHILLA STATION,102,28.6687963,77.1834816,SARAI ROHILLA STATION,https://www.google.com/maps/search/?api=1&query=SARAI+ROHILLA+STATION+Police+Station+Delhi,VERIFIED
MANDI HOUSE/PRAGATI MAIDAN METRO,96,,,,https://www.google.com/maps/search/?api=1&query=MANDI+HOUSE/PRAGATI+MAIDAN+METRO+Police+Station+Delhi,
ANAND VIHAR RLY STN,89,28.6480127,77.3148709,ANAND VIHAR RLY STN,https://www.google.com/maps/search/?api=1&query=ANAND+VIHAR+RLY+STN+Police+Station+Delhi,VERIFIED
TUGHLAK ROAD,76,28.6079527,77.2156725,TUGHLAK ROAD,https://www.google.com/maps/search/?api=1&query=TUGHLAK+ROAD+Police+Station+Delhi,VERIFIED
SOUTH AVENUE,74,28.6072181,77.199754,SOUTH AVENUE,https://www.google.com/maps/search/?api=1&query=SOUTH+AVENUE+Police+Station+Delhi,VERIFIED
HAZRAT NIZAMUDDIN RLY STN,72,28.5901331,77.2487388,HAZRAT NIZAMUDDIN RLY STN,https://www.google.com/maps/search/?api=1&query=HAZRAT+NIZAMUDDIN+RLY+STN+Police+Station+Delhi,VERIFIED
METRO RAILWAY STATION SHASTRI PARK,69,28.6688186,77.2485155,METRO RAILWAY STATION SHASTRI PARK,https://www.google.com/maps/search/?api=1&query=METRO+RAILWAY+STATION+SHASTRI+PARK+Police+Station+Delhi,VERIFIED
METRO RAILWAY STATION RAJAOURI GARDEN,68,28.6503267,77.1231741,METRO RAILWAY STATION RAJAOURI GARDEN,https://www.google.com/maps/search/?api=1&query=METRO+RAILWAY+STATION+RAJAOURI+GARDEN+Police+Station+Delhi,VERIFIED
SUBZI MANDI RAILWAY STATION,53,28.6677797,77.2042664,SUBZI MANDI RAILWAY STATION,https://www.google.com/maps/search/?api=1&query=SUBZI+MANDI+RAILWAY+STATION+Police+Station+Delhi,VERIFIED
KALKAJI MANDIR/ OKHLA VIHAR (M),53,28.5498204,77.2607105,KALKAJI MANDIR/ OKHLA VIHAR (M),https://www.google.com/maps/search/?api=1&query=KALKAJI+MANDIR/+OKHLA+VIHAR+(M)+Police+Station+Delhi,VERIFIED
METRO RAILWAY STATION YAMUNA DEPOT,52,28.6225915,77.2673117,METRO RAILWAY STATION YAMUNA DEPOT,https://www.google.com/maps/search/?api=1&query=METRO+RAILWAY+STATION+YAMUNA+DEPOT+Police+Station+Delhi,VERIFIED
CENTRAL SECRETARIATE/RAJIV CHOWK METRO,47,28.614062,77.2147055,CENTRAL SECRETARIATE/RAJIV CHOWK METRO,https://www.google.com/maps/search/?api=1&query=CENTRAL+SECRETARIATE/RAJIV+CHOWK+METRO+Police+Station+Delhi,VERIFIED
DOMESTIC AIRPORT,45,28.5647485,77.1219789,DOMESTIC AIRPORT,https://www.google.com/maps/search/?api=1&query=DOMESTIC+AIRPORT+Police+Station+Delhi,VERIFIED
RAJA GARDEN (M),45,28.6507385,77.1210386,RAJA GARDEN (M),https://www.google.com/maps/search/?api=1&query=RAJA+GARDEN+(M)+Police+Station+Delhi,VERIFIED
DELHI CANTT. RAILWAY STATION,40,28.5966161,77.1446198,DELHI CANTT. RAILWAY STATION,https://www.google.com/maps/search/?api=1&query=DELHI+CANTT.+RAILWAY+STATION+Police+Station+Delhi,VERIFIED
METRO RAILWAY STATION RITHALA,40,28.720006,77.1046658,METRO RAILWAY STATION RITHALA,https://www.google.com/maps/search/?api=1&query=METRO+RAILWAY+STATION+RITHALA+Police+Station+Delhi,VERIFIED
MAURICE NAGAR,38,28.6924958,77.2066113,MAURICE NAGAR,https://www.google.com/maps/search/?api=1&query=MAURICE+NAGAR+Police+Station+Delhi,VERIFIED
KASHMIRI GATE (METRO),37,28.6645033,77.2288216,KASHMIRI GATE (METRO),https://www.google.com/maps/search/?api=1&query=KASHMIRI+GATE+(METRO)+Police+Station+Delhi,VERIFIED
METRO RAILWAY STATION QUTAB MINAR,29,28.509703,77.1682894,METRO RAILWAY STATION QUTAB MINAR,https://www.google.com/maps/search/?api=1&query=METRO+RAILWAY+STATION+QUTAB+MINAR+Police+Station+Delhi,VERIFIED
AZADPUR (M),28,28.7121101,77.1755,AZADPUR (M),https://www.google.com/maps/search/?api=1&query=AZADPUR+(M)+Police+Station+Delhi,VERIFIED
METRO RAILWAY STATION KALKAJI MANDIR,23,28.549034,77.2577187,METRO RAILWAY STATION KALKAJI MANDIR,https://www.google.com/maps/search/?api=1&query=METRO+RAILWAY+STATION+KALKAJI+MANDIR+Police+Station+Delhi,VERIFIED
MADIPUR,22,28.666696,77.117469,MADIPUR,https://www.google.com/maps/search/?api=1&query=MADIPUR+Police+Station+Delhi,VERIFIED
METRO RAILWAY STATION RAJIV CHOWK,21,28.628203,77.2170555,METRO RAILWAY STATION RAJIV CHOWK,https://www.google.com/maps/search/?api=1&query=METRO+RAILWAY+STATION+RAJIV+CHOWK+Police+Station+Delhi,VERIFIED
INA METRO,21,28.5744596,77.2093039,INA METRO,https://www.google.com/maps/search/?api=1&query=INA+METRO+Police+Station+Delhi,VERIFIED
IGI AIRPORT (M),20,28.5592127,77.1067925,IGI AIRPORT (M),https://www.google.com/maps/search/?api=1&query=IGI+AIRPORT+(M)+Police+Station+Delhi,VERIFIED
Anti Kidnapping Section,20,28.634138,77.174634,Anti Kidnapping Section,https://www.google.com/maps/search/?api=1&query=Anti+Kidnapping+Section+Police+Station+Delhi,VERIFIED
UDHYOG NAGAR/NANGLOI METRO,19,28.681048,77.080864,UDHYOG NAGAR/NANGLOI METRO,https://www.google.com/maps/search/?api=1&query=UDHYOG+NAGAR/NANGLOI+METRO+Police+Station+Delhi,VERIFIED
SHASHTRI PARK METRO,18,28.6688186,77.2485155,SHASHTRI PARK METRO,https://www.google.com/maps/search/?api=1&query=SHASHTRI+PARK+METRO+Police+Station+Delhi,VERIFIED
METRO RAILWAY STATION NETAJI SUBHASH PLACE,17,28.6960742,77.1538697,METRO RAILWAY STATION NETAJI SUBHASH PLACE,https://www.google.com/maps/search/?api=1&query=METRO+RAILWAY+STATION+NETAJI+SUBHASH+PLACE+Police+Station+Delhi,VERIFIED
SHASTRI PARK(M),17,28.6728158,77.2569505,SHASTRI PARK(M),https://www.google.com/maps/search/?api=1&query=SHASTRI+PARK(M)+Police+Station+Delhi,VERIFIED
KASHMIRI GATE METRO,16,28.6645033,77.2288216,KASHMIRI GATE METRO,https://www.google.com/maps/search/?api=1&query=KASHMIRI+GATE+METRO+Police+Station+Delhi,VERIFIED
METRO RAILWAY STATION INA,16,28.5744596,77.2093039,METRO RAILWAY STATION INA,https://www.google.com/maps/search/?api=1&query=METRO+RAILWAY+STATION+INA+Police+Station+Delhi,VERIFIED
NETAJI SUBHASH PALACE (M),15,28.6926609,77.1488694,NETAJI SUBHASH PALACE (M),https://www.google.com/maps/search/?api=1&query=NETAJI+SUBHASH+PALACE+(M)+Police+Station+Delhi,VERIFIED
JANAK PURI METRO,14,28.6210223,77.0521245,JANAK PURI METRO,https://www.google.com/maps/search/?api=1&query=JANAK+PURI+METRO+Police+Station+Delhi,VERIFIED
RAJA GARDEN METRO,14,28.649982,77.1220409,RAJA GARDEN METRO,https://www.google.com/maps/search/?api=1&query=RAJA+GARDEN+METRO+Police+Station+Delhi,VERIFIED
METRO RAILWAY STATION IGI AIRPORT,14,28.5536769,77.091606,METRO RAILWAY STATION IGI AIRPORT,https://www.google.com/maps/search/?api=1&query=METRO+RAILWAY+STATION+IGI+AIRPORT+Police+Station+Delhi,VERIFIED
QUTUB MINAR/GHITORNI(M),12,28.5196744,77.1858592,QUTUB MINAR/GHITORNI(M),https://www.google.com/maps/search/?api=1&query=QUTUB+MINAR/GHITORNI(M)+Police+Station+Delhi,VERIFIED
KARTAVYA PATH,11,28.6142491,77.2119211,KARTAVYA PATH,https://www.google.com/maps/search/?api=1&query=KARTAVYA+PATH+Police+Station+Delhi,VERIFIED
Metro Police Station Rajiv Chowk,10,28.6689833,77.1498352,Metro Police Station Rajiv Chowk,https://www.google.com/maps/search/?api=1&query=Metro+Police+Station+Rajiv+Chowk+Police+Station+Delhi,VERIFIED
Metro Police Station Netaji Subhash Place,10,28.6960742,77.1538697,Metro Police Station Netaji Subhash Place,https://www.google.com/maps/search/?api=1&query=Metro+Police+Station+Netaji+Subhash+Place+Police+Station+Delhi,VERIFIED
UDHOY NAGAR NANGLOI METRO,9,28.6822104,77.0725337,UDHOY NAGAR NANGLOI METRO,https://www.google.com/maps/search/?api=1&query=UDHOY+NAGAR+NANGLOI+METRO+Police+Station+Delhi,VERIFIED
YAMUNA DEPOT (M),8,28.6225915,77.2673117,YAMUNA DEPOT (M),https://www.google.com/maps/search/?api=1&query=YAMUNA+DEPOT+(M)+Police+Station+Delhi,VERIFIED
CRIME BRANCH,7,28.6296894,77.2054907,CRIME BRANCH,https://www.google.com/maps/search/?api=1&query=CRIME+BRANCH+Police+Station+Delhi,VERIFIED
"JOINT CP, TRAFFIC",7,,,,"https://www.google.com/maps/search/?api=1&query=JOINT+CP,+TRAFFIC+Police+Station+Delhi",
MADHUBAN,6,28.7109071,77.4793585,MADHUBAN,https://www.google.com/maps/search/?api=1&query=MADHUBAN+Police+Station+Delhi,VERIFIED
METRO RAILWAY STATION JANAKPURI,6,28.62842,77.0819094,METRO RAILWAY STATION JANAKPURI,https://www.google.com/maps/search/?api=1&query=METRO+RAILWAY+STATION+JANAKPURI+Police+Station+Delhi,VERIFIED
TOWN HALL,6,28.6120191,77.1995216,TOWN HALL,https://www.google.com/maps/search/?api=1&query=TOWN+HALL+Police+Station+Delhi,VERIFIED
SPECIAL CELL,5,,,,https://www.google.com/maps/search/?api=1&query=SPECIAL+CELL+Police+Station+Delhi,
MAHIPAL PUR,4,28.5499478,77.1301634,MAHIPAL PUR,https://www.google.com/maps/search/?api=1&query=MAHIPAL+PUR+Police+Station+Delhi,VERIFIED
IGI AIRPORT METRO,4,28.5592127,77.1067925,IGI AIRPORT METRO,https://www.google.com/maps/search/?api=1&query=IGI+AIRPORT+METRO+Police+Station+Delhi,VERIFIED
"DCP/TRAFFIC, NEW DELHI RANGE",4,,,,"https://www.google.com/maps/search/?api=1&query=DCP/TRAFFIC,+NEW+DELHI+RANGE+Police+Station+Delhi",
METRO RAILWAY STATION AZADPUR,4,28.7066629,77.177924,METRO RAILWAY STATION AZADPUR,https://www.google.com/maps/search/?api=1&query=METRO+RAILWAY+STATION+AZADPUR+Police+Station+Delhi,VERIFIED
YAMUNA DEPOT METRO,4,28.6225915,77.2673117,YAMUNA DEPOT METRO,https://www.google.com/maps/search/?api=1&query=YAMUNA+DEPOT+METRO+Police+Station+Delhi,VERIFIED
Metro Police Station Nangloi,3,28.6833727,77.0642034,Metro Police Station Nangloi,https://www.google.com/maps/search/?api=1&query=Metro+Police+Station+Nangloi+Police+Station+Delhi,VERIFIED
Metro Police Station Azadpur,3,28.7072896,77.1801674,Metro Police Station Azadpur,https://www.google.com/maps/search/?api=1&query=Metro+Police+Station+Azadpur+Police+Station+Delhi,VERIFIED
EAST PAHAR GANJ,3,28.647615,77.2128122,EAST PAHAR GANJ,https://www.google.com/maps/search/?api=1&query=EAST+PAHAR+GANJ+Police+Station+Delhi,VERIFIED
"DCP/TRAFFIC, NORTHERN RANGE",3,,,,"https://www.google.com/maps/search/?api=1&query=DCP/TRAFFIC,+NORTHERN+RANGE+Police+Station+Delhi",
LAJPAT NAGAR METRO,3,28.5680581,77.2409593,LAJPAT NAGAR METRO,https://www.google.com/maps/search/?api=1&query=LAJPAT+NAGAR+METRO+Police+Station+Delhi,VERIFIED
"ADDL. CP, TRAFFIC",2,28.6029571,77.1960501,"ADDL. CP, TRAFFIC","https://www.google.com/maps/search/?api=1&query=ADDL.+CP,+TRAFFIC+Police+Station+Delhi",VERIFIED
METRO RAILWAY STATION OKHLA VIHAR,2,,,,https://www.google.com/maps/search/?api=1&query=METRO+RAILWAY+STATION+OKHLA+VIHAR+Police+Station+Delhi,
NARELA INDL. AREA,2,28.8732436,77.0233487,NARELA INDL. AREA,https://www.google.com/maps/search/?api=1&query=NARELA+INDL.+AREA+Police+Station+Delhi,VERIFIED
METRO RAILWAY STATION NEHRU PLACE,2,,,,https://www.google.com/maps/search/?api=1&query=METRO+RAILWAY+STATION+NEHRU+PLACE+Police+Station+Delhi,
Metro Police Station Pragati Maidan,2,28.624779,77.2408853,Metro Police Station Pragati Maidan,https://www.google.com/maps/search/?api=1&query=Metro+Police+Station+Pragati+Maidan+Police+Station+Delhi,VERIFIED
RITHALA METRO,2,28.7200245,77.1077669,RITHALA METRO,https://www.google.com/maps/search/?api=1&query=RITHALA+METRO+Police+Station+Delhi,VERIFIED
Nehru Place Metro,2,28.549104,77.2534778,Nehru Place Metro,https://www.google.com/maps/search/?api=1&query=Nehru+Place+Metro+Police+Station+Delhi,VERIFIED
Metro Police Station Okhla Vihar,2,28.5469007,77.2856081,Metro Police Station Okhla Vihar,https://www.google.com/maps/search/?api=1&query=Metro+Police+Station+Okhla+Vihar+Police+Station+Delhi,VERIFIED
RITHALA (METRO),2,28.719983,77.1042142,RITHALA (METRO),https://www.google.com/maps/search/?api=1&query=RITHALA+(METRO)+Police+Station+Delhi,VERIFIED
bring,1,28.6275827,77.1572053,bring,https://www.google.com/maps/search/?api=1&query=bring+Police+Station+Delhi,VERIFIED
Special Team,1,28.6396188,77.1765115,Special Team,https://www.google.com/maps/search/?api=1&query=Special+Team+Police+Station+Delhi,VERIFIED
Metro Police Station Ghitorni,1,28.4932843,77.1486196,Metro Police Station Ghitorni,https://www.google.com/maps/search/?api=1&query=Metro+Police+Station+Ghitorni+Police+Station+Delhi,VERIFIED
JAGATPURI,1,28.6437715,77.2840574,JAGATPURI,https://www.google.com/maps/search/?api=1&query=JAGATPURI+Police+Station+Delhi,VERIFIED
SUPREME COURT METRO,1,28.6236295,77.2540315,SUPREME COURT METRO,https://www.google.com/maps/search/?api=1&query=SUPREME+COURT+METRO+Police+Station+Delhi,VERIFIED
O.I. ESTATE,1,28.5818906,77.2432173,O.I. ESTATE,https://www.google.com/maps/search/?api=1&query=O.I.+ESTATE+Police+Station+Delhi,VERIFIED
"DCP/TRAFFIC, SOUTHERN RANGE",1,,,,"https://www.google.com/maps/search/?api=1&query=DCP/TRAFFIC,+SOUTHERN+RANGE+Police+Station+Delhi",
PARTAP NAGAR,1,,,,https://www.google.com/maps/search/?api=1&query=PARTAP+NAGAR+Police+Station+Delhi,
RK PURAM,1,,,,https://www.google.com/maps/search/?api=1&query=RK+PURAM+Police+Station+Delhi,
Special Investigation Team,1,,,,https://www.google.com/maps/search/?api=1&query=Special+Investigation+Team+Police+Station+Delhi,
